[{"OBJECT_NAME":"ONEWEB-0641","OBJECT_ID":"2023-029K","EPOCH":"2026-03-09T16:58:19.602048","MEAN_MOTION":13.19724972,"ECCENTRICITY":0.00017967,"INCLINATION":87.9233,"RA_OF_ASC_NODE":324.7853,"ARG_OF_PERICENTER":84.5324,"MEAN_ANOMALY":275.6014,"EPHEMERIS_TYPE":0,"CLASSIFICATION_TYPE":"U","NORAD_CAT_ID":55805,"ELEMENT_SET_NO":999,"REV_AT_EPOCH":14579,"BSTAR":-0.00052362976,"MEAN_MOTION_DOT":-1.97e-6,"MEAN_MOTION_DDOT":0},{"OBJECT_NAME":"SL-14 R\/B","OBJECT_ID":"1988-064B","EPOCH":"2026-03-09T22:26:58.344864","MEAN_MOTION":13.17272582,"ECCENTRICITY":0.00165949,"INCLINATION":82.5463,"RA_OF_ASC_NODE":44.0722,"ARG_OF_PERICENTER":124.4622,"MEAN_ANOMALY":289.5659,"EPHEMERIS_TYPE":0,"CLASSIFICATION_TYPE":"U","NORAD_CAT_ID":19337,"ELEMENT_SET_NO":999,"REV_AT_EPOCH":80867,"BSTAR":0.00033527684,"MEAN_MOTION_DOT":1.42e-6,"MEAN_MOTION_DDOT":0}]
